0 DIRECTV 6 (TEMPO 2)
1 24748U 97011A   13281.80235949 -.00000163  00000-0  10000-3 0  7777
2 24748 006.7783 057.2918 0027814 189.1168 170.8843 00.99031437 60537
0 DIRECTV 6 (TEMPO 2)
1 24748U 97011A   13282.81210598  .00000000  00000-0  10000-3 0  7793
2 24748 006.7813 057.2801 0029389 190.3867 169.6045 00.99027524 60544
0 DIRECTV 6 (TEMPO 2)
1 24748U 97011A   13283.82182927 -.00000109  00000-0  10000-3 0  7789
2 24748 006.7824 057.2693 0027995 189.2681 170.7279 00.99030473 60557
0 DIRECTV 6 (TEMPO 2)
1 24748U 97011A   13285.84135441 -.00000053  00000-0  10000-3 0  7791
2 24748 006.7863 057.2472 0028079 189.3661 170.6380 00.99029701 60574
0 DIRECTV 6 (TEMPO 2)
1 24748U 97011A   13287.86086103 -.00000003  00000-0  10000-3 0  7802
2 24748 006.7903 057.2260 0028170 189.3747 170.6258 00.99029214 60596
0 DIRECTV 6 (TEMPO 2)
1 24748U 97011A   13289.88030920  .00000037  00000-0  10000-3 0  7819
2 24748 006.7945 057.2050 0028226 189.5742 170.3975 00.99029043 60614
0 DIRECTV 6 (TEMPO 2)
1 24748U 97011A   13289.88032606  .00000000  00000-0  10000-3 0  7812
2 24748 006.7940 057.1993 0029350 189.4549 170.5255 00.99025935 60616
0 DIRECTV 6 (TEMPO 2)
1 24748U 97011A   13291.89973664  .00000060  00000-0  10000-3 0  7821
2 24748 006.7986 057.1826 0029033 190.6237 169.3098 00.99029254 60638
0 DIRECTV 6 (TEMPO 2)
1 24748U 97011A   13293.91917139  .00000065  00000-0  10000-3 0  7837
2 24748 006.8026 057.1617 0028962 190.5939 169.3122 00.99029747 60657
